{"type": "FeatureCollection", "features": [ {"type": "Feature", "properties": {"norad_id": 30914, "name": "FENGYUN 1C DEB", "group": "fengyun-1c-debris", "lat": 14.416249632007528, "lon": 43.79475784061308, "alt_km": 1555.1647365339413, "timestamp": "2025-12-02T15:49:07.469329+00:00", "meta": {"OBJECT_NAME": "FENGYUN 1C DEB", "OBJECT_ID": "1999-025AZC", "EPOCH": "2025-12-01T22:29:26.109600", "MEAN_MOTION": 13.08750584, "ECCENTRICITY": 0.05150104, "INCLINATION": 99.9812, "RA_OF_ASC_NODE": 220.5244, "ARG_OF_PERICENTER": 18.8698, "MEAN_ANOMALY": 343.0751, "EPHEMERIS_TYPE": 0, "CLASSIFICATION_TYPE": "U", "NORAD_CAT_ID": 30914, "ELEMENT_SET_NO": 999, "REV_AT_EPOCH": 58934, "BSTAR": 0.0044593924, "MEAN_MOTION_DOT": 2.879e-05, "MEAN_MOTION_DDOT": 0}, "tle": {"line1": "1 30914U 99025AZC 25335.93710775  .00002879  00000+0  44594-2 0  9992", "line2": "2 30914  99.9812 220.5244 0515010  18.8698 343.0751 13.08750584589341"}}, "geometry": {"type": "Point", "coordinates": [43.79475784061308, 14.416249632007528]}}, {"type": "Feature", "properties": {"norad_id": 30915, "name": "FENGYUN 1C DEB", "group": "fengyun-1c-debris", "lat": -11.265810211048441, "lon": 54.44306387726774, "alt_km": 847.3153962159668, "timestamp": "2025-12-02T15:49:07.469340+00:00", "meta": {"OBJECT_NAME": "FENGYUN 1C DEB", "OBJECT_ID": "1999-025AZD", "EPOCH": "2025-12-02T04:04:32.751264", "MEAN_MOTION": 14.24909084, "ECCENTRICITY": 0.00537911, "INCLINATION": 98.9429, "RA_OF_ASC_NODE": 52.1473, "ARG_OF_PERICENTER": 197.5553, "MEAN_ANOMALY": 162.3767, "EPHEMERIS_TYPE": 0, "CLASSIFICATION_TYPE": "U", "NORAD_CAT_ID": 30915, "ELEMENT_SET_NO": 999, "REV_AT_EPOCH": 96362, "BSTAR": 0.0018451139, "MEAN_MOTION_DOT": 4.333e-05, "MEAN_MOTION_DDOT": 0}, "tle": {"line1": "1 30915U 99025AZD 25336.16982351  .00004333  00000+0  18451-2 0  9990", "line2": "2 30915  98.9429  52.1473 0053791 197.5553 162.3767 14.24909084963622"}}, "geometry": {"type": "Point", "coordinates": [54.44306387726774, -11.265810211048441]}}, {"type": "Feature", "properties": {"norad_id": 30916, "name": "FENGYUN 1C DEB", "group": "fengyun-1c-debris", "lat": -77.45050540562998, "lon": 171.6008931910418, "alt_km": 830.3101140144463, "timestamp": "2025-12-02T15:49:07.469350+00:00", "meta": {"OBJECT_NAME": "FENGYUN 1C DEB", "OBJECT_ID": "1999-025AZE", "EPOCH": "2025-12-02T02:47:45.524832", "MEAN_MOTION": 14.08727601, "ECCENTRICITY": 0.00622506, "INCLINATION": 99.0033, "RA_OF_ASC_NODE": 36.4759, "ARG_OF_PERICENTER": 288.3323, "MEAN_ANOMALY": 102.8715, "EPHEMERIS_TYPE": 0, "CLASSIFICATION_TYPE": "U", "NORAD_CAT_ID": 30916, "ELEMENT_SET_NO": 999, "REV_AT_EPOCH": 95694, "BSTAR": 0.001400424, "MEAN_MOTION_DOT": 2.412e-05, "MEAN_MOTION_DDOT": 0}, "tle": {"line1": "1 30916U 99025AZE 25336.11649913  .00002412  00000+0  14004-2 0  9996", "line2": "2 30916  99.0033  36.4759 0062250 288.3323 102.8715 14.08727601956946"}}, "geometry": {"type": "Point", "coordinates": [171.6008931910418, -77.45050540562998]}}, {"type": "Feature", "properties": {"norad_id": 30918, "name": "FENGYUN 1C DEB", "group": "fengyun-1c-debris", "lat": 57.20778659677177, "lon": 76.43164656172326, "alt_km": 908.1594928691966, "timestamp": "2025-12-02T15:49:07.469361+00:00", "meta": {"OBJECT_NAME": "FENGYUN 1C DEB", "OBJECT_ID": "1999-025AZG", "EPOCH": "2025-12-01T07:00:31.252896", "MEAN_MOTION": 13.96745783, "ECCENTRICITY": 0.01585842, "INCLINATION": 98.4159, "RA_OF_ASC_NODE": 88.4644, "ARG_OF_PERICENTER": 157.2538, "MEAN_ANOMALY": 232.516, "EPHEMERIS_TYPE": 0, "CLASSIFICATION_TYPE": "U", "NORAD_CAT_ID": 30918, "ELEMENT_SET_NO": 999, "REV_AT_EPOCH": 94893, "BSTAR": 0.0013586348, "MEAN_MOTION_DOT": 2.06e-05, "MEAN_MOTION_DDOT": 0}, "tle": {"line1": "1 30918U 99025AZG 25335.29202839  .00002060  00000+0  13586-2 0  9991", "line2": "2 30918  98.4159  88.4644 0158584 157.2538 232.5160 13.96745783948930"}}, "geometry": {"type": "Point", "coordinates": [76.43164656172326, 57.20778659677177]}}, {"type": "Feature", "properties": {"norad_id": 30920, "name": "FENGYUN 1C DEB", "group": "fengyun-1c-debris", "lat": -30.58521962901987, "lon": 123.25523283674144, "alt_km": 918.4586150473178, "timestamp": "2025-12-02T15:49:07.469372+00:00", "meta": {"OBJECT_NAME": "FENGYUN 1C DEB", "OBJECT_ID": "1999-025AZJ", "EPOCH": "2025-12-02T05:47:40.686432", "MEAN_MOTION": 14.16344905, "ECCENTRICITY": 0.01118326, "INCLINATION": 98.9192, "RA_OF_ASC_NODE": 117.5111, "ARG_OF_PERICENTER": 128.5233, "MEAN_ANOMALY": 232.6031, "EPHEMERIS_TYPE": 0, "CLASSIFICATION_TYPE": "U", "NORAD_CAT_ID": 30920, "ELEMENT_SET_NO": 999, "REV_AT_EPOCH": 94945, "BSTAR": 0.0049956217, "MEAN_MOTION_DOT": 0.0001051, "MEAN_MOTION_DDOT": 0}, "tle": {"line1": "1 30920U 99025AZJ 25336.24144313  .00010510  00000+0  49956-2 0  9991", "line2": "2 30920  98.9192 117.5111 0111832 128.5233 232.6031 14.16344905949456"}}, "geometry": {"type": "Point", "coordinates": [123.25523283674144, -30.58521962901987]}}, {"type": "Feature", "properties": {"norad_id": 30921, "name": "FENGYUN 1C DEB", "group": "fengyun-1c-debris", "lat": -9.386255421082888, "lon": 65.40974637390845, "alt_km": 784.6611397331517, "timestamp": "2025-12-02T15:49:07.469383+00:00", "meta": {"OBJECT_NAME": "FENGYUN 1C DEB", "OBJECT_ID": "1999-025AZK", "EPOCH": "2025-12-02T04:24:03.790080", "MEAN_MOTION": 14.32570692, "ECCENTRICITY": 0.00175994, "INCLINATION": 98.844, "RA_OF_ASC_NODE": 63.4498, "ARG_OF_PERICENTER": 70.4966, "MEAN_ANOMALY": 348.211, "EPHEMERIS_TYPE": 0, "CLASSIFICATION_TYPE": "U", "NORAD_CAT_ID": 30921, "ELEMENT_SET_NO": 999, "REV_AT_EPOCH": 96673, "BSTAR": 0.0020621203, "MEAN_MOTION_DOT": 5.564e-05, "MEAN_MOTION_DDOT": 0}, "tle": {"line1": "1 30921U 99025AZK 25336.18337720  .00005564  00000+0  20621-2 0  9992", "line2": "2 30921  98.8440  63.4498 0017599  70.4966 348.2110 14.32570692966736"}}, "geometry": {"type": "Point", "coordinates": [65.40974637390845, -9.386255421082888]}}, {"type": "Feature", "properties": {"norad_id": 30922, "name": "FENGYUN 1C DEB", "group": "fengyun-1c-debris", "lat": 50.83860844177604, "lon": -176.45514232249832, "alt_km": 822.0891271709879, "timestamp": "2025-12-02T15:49:07.469394+00:00", "meta": {"OBJECT_NAME": "FENGYUN 1C DEB", "OBJECT_ID": "1999-025AZL", "EPOCH": "2025-12-02T07:02:39.156000", "MEAN_MOTION": 14.17417024, "ECCENTRICITY": 0.00148498, "INCLINATION": 98.641, "RA_OF_ASC_NODE": 352.4288, "ARG_OF_PERICENTER": 82.1432, "MEAN_ANOMALY": 341.4849, "EPHEMERIS_TYPE": 0, "CLASSIFICATION_TYPE": "U", "NORAD_CAT_ID": 30922, "ELEMENT_SET_NO": 999, "REV_AT_EPOCH": 96416, "BSTAR": 0.00079668615, "MEAN_MOTION_DOT": 1.573e-05, "MEAN_MOTION_DDOT": 0}, "tle": {"line1": "1 30922U 99025AZL 25336.29350875  .00001573  00000+0  79669-3 0  9994", "line2": "2 30922  98.6410 352.4288 0014849  82.1432 341.4849 14.17417024964164"}}, "geometry": {"type": "Point", "coordinates": [-176.45514232249832, 50.83860844177604]}}, {"type": "Feature", "properties": {"norad_id": 30925, "name": "FENGYUN 1C DEB", "group": "fengyun-1c-debris", "lat": 47.41330193765318, "lon": 98.22007260550215, "alt_km": 763.1047586835475, "timestamp": "2025-12-02T15:49:07.469405+00:00", "meta": {"OBJECT_NAME": "FENGYUN 1C DEB", "OBJECT_ID": "1999-025AZP", "EPOCH": "2025-12-02T07:33:36.546912", "MEAN_MOTION": 14.42841359, "ECCENTRICITY": 0.00326818, "INCLINATION": 98.8823, "RA_OF_ASC_NODE": 107.6578, "ARG_OF_PERICENTER": 267.6181, "MEAN_ANOMALY": 154.0428, "EPHEMERIS_TYPE": 0, "CLASSIFICATION_TYPE": "U", "NORAD_CAT_ID": 30925, "ELEMENT_SET_NO": 999, "REV_AT_EPOCH": 96922, "BSTAR": 0.0029561899, "MEAN_MOTION_DOT": 9.896e-05, "MEAN_MOTION_DDOT": 0}, "tle": {"line1": "1 30925U 99025AZP 25336.31500633  .00009896  00000+0  29562-2 0  9991", "line2": "2 30925  98.8823 107.6578 0032681 267.6181 154.0428 14.42841359969227"}}, "geometry": {"type": "Point", "coordinates": [98.22007260550215, 47.41330193765318]}}, {"type": "Feature", "properties": {"norad_id": 30926, "name": "FENGYUN 1C DEB", "group": "fengyun-1c-debris", "lat": -41.643522409844756, "lon": -75.81035688454894, "alt_km": 617.7307259714707, "timestamp": "2025-12-02T15:49:07.469415+00:00", "meta": {"OBJECT_NAME": "FENGYUN 1C DEB", "OBJECT_ID": "1999-025AZQ", "EPOCH": "2025-12-01T19:02:32.350272", "MEAN_MOTION": 14.89123668, "ECCENTRICITY": 0.01669943, "INCLINATION": 98.8004, "RA_OF_ASC_NODE": 275.3096, "ARG_OF_PERICENTER": 56.7453, "MEAN_ANOMALY": 304.9638, "EPHEMERIS_TYPE": 0, "CLASSIFICATION_TYPE": "U", "NORAD_CAT_ID": 30926, "ELEMENT_SET_NO": 999, "REV_AT_EPOCH": 604, "BSTAR": 0.00056587813, "MEAN_MOTION_DOT": 6.865e-05, "MEAN_MOTION_DDOT": 0}, "tle": {"line1": "1 30926U 99025AZQ 25335.79342998  .00006865  00000+0  56588-3 0  9993", "line2": "2 30926  98.8004 275.3096 0166994  56.7453 304.9638 14.89123668  6049"}}, "geometry": {"type": "Point", "coordinates": [-75.81035688454894, -41.643522409844756]}}, {"type": "Feature", "properties": {"norad_id": 30927, "name": "FENGYUN 1C DEB", "group": "fengyun-1c-debris", "lat": -7.738379368518479, "lon": -144.31812883597058, "alt_km": 930.770625580968, "timestamp": "2025-12-02T15:49:07.469426+00:00", "meta": {"OBJECT_NAME": "FENGYUN 1C DEB", "OBJECT_ID": "1999-025AZR", "EPOCH": "2025-12-01T03:08:37.115232", "MEAN_MOTION": 14.08879323, "ECCENTRICITY": 0.00989644, "INCLINATION": 99.1831, "RA_OF_ASC_NODE": 35.3851, "ARG_OF_PERICENTER": 38.9072, "MEAN_ANOMALY": 321.9165, "EPHEMERIS_TYPE": 0, "CLASSIFICATION_TYPE": "U", "NORAD_CAT_ID": 30927, "ELEMENT_SET_NO": 999, "REV_AT_EPOCH": 95520, "BSTAR": 0.0016313898, "MEAN_MOTION_DOT": 2.904e-05, "MEAN_MOTION_DDOT": 0}, "tle": {"line1": "1 30927U 99025AZR 25335.13098513  .00002904  00000+0  16314-2 0  9995", "line2": "2 30927  99.1831  35.3851 0098964  38.9072 321.9165 14.08879323955207"}}, "geometry": {"type": "Point", "coordinates": [-144.31812883597058, -7.738379368518479]}}]}